start=new Date('2022-01-09T00:00:00.000Z').valueOf();
sats=[{"ARG_OF_PERICENTER":"61.6598","OBJECT_ID":"2020-088AD","REF_FRAME":"TEME","PERIOD":"95.593","RCS_SIZE":"LARGE","MEAN_ANOMALY":"298.4595","EPOCH":"2022-01-08T18:13:58.378080","EPHEMERIS_TYPE":"0","APOAPSIS":"548.661","ELEMENT_SET_NO":"999","LAUNCH_DATE":"2020-11-25","REV_AT_EPOCH":"6333","MEAN_MOTION_DOT":"0.00001314","RA_OF_ASC_NODE":"289.3411","ECCENTRICITY":"0.00020260","OBJECT_NAME":"STARLINK-1862","FILE":"3267514","CLASSIFICATION_TYPE":"U","PERIAPSIS":"545.855","TLE_LINE2":"2 47149  53.0546 289.3411 0002026  61.6598 298.4595 15.06385615 63330","NORAD_CAT_ID":"47149","DECAY_DATE":null,"CENTER_NAME":"EARTH","INCLINATION":"53.0546","MEAN_MOTION_DDOT":"0.0000000000000","MEAN_ELEMENT_THEORY":"SGP4","OBJECT_TYPE":"PAYLOAD","COUNTRY_CODE":"US","TIME_SYSTEM":"UTC","BSTAR":"0.00010712000000","TLE_LINE1":"1 47149U 20088AD  22008.75970345  .00001314  00000-0  10712-3 0  9998","SEMIMAJOR_AXIS":"6925.393","SITE":"AFETR","GP_ID":"193490114","MEAN_MOTION":"15.06385615"},{"MEAN_MOTION":"15.06399627","GP_ID":"193490866","SITE":"AFETR","SEMIMAJOR_AXIS":"6925.350","BSTAR":"0.00004393100000","TLE_LINE1":"1 47150U 20088AE  22008.88593818  .00000373  00000-0  43931-4 0  9994","TIME_SYSTEM":"UTC","COUNTRY_CODE":"US","OBJECT_TYPE":"PAYLOAD","MEAN_ELEMENT_THEORY":"SGP4","MEAN_MOTION_DDOT":"0.0000000000000","INCLINATION":"53.0541","CENTER_NAME":"EARTH","DECAY_DATE":null,"NORAD_CAT_ID":"47150","TLE_LINE2":"2 47150  53.0541 278.7738 0002253  62.3346 297.7871 15.06399627 62765","PERIAPSIS":"545.654","CLASSIFICATION_TYPE":"U","OBJECT_NAME":"STARLINK-1863","FILE":"3267514","ECCENTRICITY":"0.00022530","RA_OF_ASC_NODE":"278.7738","MEAN_MOTION_DOT":"0.00000373","REV_AT_EPOCH":"6276","LAUNCH_DATE":"2020-11-25","ELEMENT_SET_NO":"999","APOAPSIS":"548.775","EPHEMERIS_TYPE":"0","EPOCH":"2022-01-08T21:15:45.058752","MEAN_ANOMALY":"297.7871","PERIOD":"95.592","RCS_SIZE":"LARGE","REF_FRAME":"TEME","OBJECT_ID":"2020-088AE","ARG_OF_PERICENTER":"62.3346"},{"ECCENTRICITY":"0.00018920","RA_OF_ASC_NODE":"290.2680","CLASSIFICATION_TYPE":"U","OBJECT_NAME":"STARLINK-1864","FILE":"3267276","REV_AT_EPOCH":"6256","MEAN_MOTION_DOT":"-0.00000576","LAUNCH_DATE":"2020-11-25","MEAN_ANOMALY":"299.4033","ELEMENT_SET_NO":"999","APOAPSIS":"548.548","EPHEMERIS_TYPE":"0","EPOCH":"2022-01-08T13:16:44.230080","OBJECT_ID":"2020-088AF","ARG_OF_PERICENTER":"60.7145","RCS_SIZE":"LARGE","PERIOD":"95.593","REF_FRAME":"TEME","SITE":"AFETR","GP_ID":"193461272","SEMIMAJOR_AXIS":"6925.373","MEAN_MOTION":"15.06392147","COUNTRY_CODE":"US","TLE_LINE1":"1 47151U 20088AF  22008.55328970 -.00000576  00000-0 -19786-4 0  9992","BSTAR":"-0.00001978600000","TIME_SYSTEM":"UTC","CENTER_NAME":"EARTH","DECAY_DATE":null,"MEAN_ELEMENT_THEORY":"SGP4","OBJECT_TYPE":"PAYLOAD","MEAN_MOTION_DDOT":"0.0000000000000","INCLINATION":"53.0558","PERIAPSIS":"545.927","NORAD_CAT_ID":"47151","TLE_LINE2":"2 47151  53.0558 290.2680 0001892  60.7145 299.4033 15.06392147 62563"},{"CLASSIFICATION_TYPE":"U","FILE":"3267276","OBJECT_NAME":"STARLINK-1866","ECCENTRICITY":"0.00021480","RA_OF_ASC_NODE":"290.6419","MEAN_MOTION_DOT":"-0.00000171","REV_AT_EPOCH":"6255","LAUNCH_DATE":"2020-11-25","ELEMENT_SET_NO":"999","EPHEMERIS_TYPE":"0","APOAPSIS":"548.715","EPOCH":"2022-01-08T11:19:57.713664","MEAN_ANOMALY":"302.6565","RCS_SIZE":"LARGE","PERIOD":"95.592","REF_FRAME":"TEME","OBJECT_ID":"2020-088AG","ARG_OF_PERICENTER":"57.4632","MEAN_MOTION":"15.06395511","SITE":"AFETR","GP_ID":"193459533","SEMIMAJOR_AXIS":"6925.362","TLE_LINE1":"1 47152U 20088AG  22008.47219576 -.00000171  00000-0  74269-5 0  9993","BSTAR":"0.00000742690000","TIME_SYSTEM":"UTC","COUNTRY_CODE":"US","MEAN_ELEMENT_THEORY":"SGP4","OBJECT_TYPE":"PAYLOAD","MEAN_MOTION_DDOT":"0.0000000000000","INCLINATION":"53.0556","CENTER_NAME":"EARTH","DECAY_DATE":null,"NORAD_CAT_ID":"47152","TLE_LINE2":"2 47152  53.0556 290.6419 0002148  57.4632 302.6565 15.06395511 62559","PERIAPSIS":"545.740"},{"NORAD_CAT_ID":"47153","TLE_LINE2":"2 47153  53.0548 295.4497 0001842  65.1327 294.9853 15.06393538 62748","PERIAPSIS":"545.958","MEAN_ELEMENT_THEORY":"SGP4","OBJECT_TYPE":"PAYLOAD","MEAN_MOTION_DDOT":"0.0000000000000","INCLINATION":"53.0548","CENTER_NAME":"EARTH","DECAY_DATE":null,"TLE_LINE1":"1 47153U 20088AH  22008.51318025  .00001342  00000-0  10897-3 0  9993","BSTAR":"0.00010897000000","TIME_SYSTEM":"UTC","COUNTRY_CODE":"US","MEAN_MOTION":"15.06393538","GP_ID":"193466207","SITE":"AFETR","SEMIMAJOR_AXIS":"6925.368","PERIOD":"95.593","RCS_SIZE":"LARGE","REF_FRAME":"TEME","OBJECT_ID":"2020-088AH","ARG_OF_PERICENTER":"65.1327","ELEMENT_SET_NO":"999","APOAPSIS":"548.509","EPHEMERIS_TYPE":"0","EPOCH":"2022-01-08T12:18:58.773600","MEAN_ANOMALY":"294.9853","MEAN_MOTION_DOT":"0.00001342","REV_AT_EPOCH":"6274","LAUNCH_DATE":"2020-11-25","CLASSIFICATION_TYPE":"U","OBJECT_NAME":"STARLINK-1867","FILE":"3267374","ECCENTRICITY":"0.00018420","RA_OF_ASC_NODE":"295.4497"},{"PERIAPSIS":"545.882","TLE_LINE2":"2 47154  53.0539 278.6759 0001949  62.6577 297.4611 15.06393919 62765","NORAD_CAT_ID":"47154","CENTER_NAME":"EARTH","DECAY_DATE":null,"OBJECT_TYPE":"PAYLOAD","MEAN_ELEMENT_THEORY":"SGP4","MEAN_MOTION_DDOT":"0.0000000000000","INCLINATION":"53.0539","COUNTRY_CODE":"US","TIME_SYSTEM":"UTC","TLE_LINE1":"1 47154U 20088AJ  22008.90805623 -.00000073  00000-0  14001-4 0  9995","BSTAR":"0.00001400100000","SITE":"AFETR","GP_ID":"193491367","SEMIMAJOR_AXIS":"6925.367","MEAN_MOTION":"15.06393919","OBJECT_ID":"2020-088AJ","ARG_OF_PERICENTER":"62.6577","REF_FRAME":"TEME","PERIOD":"95.593","RCS_SIZE":"LARGE","MEAN_ANOMALY":"297.4611","APOAPSIS":"548.582","EPHEMERIS_TYPE":"0","ELEMENT_SET_NO":"999","EPOCH":"2022-01-08T21:47:36.058272","LAUNCH_DATE":"2020-11-25","REV_AT_EPOCH":"6276","MEAN_MOTION_DOT":"-0.00000073","RA_OF_ASC_NODE":"278.6759","ECCENTRICITY":"0.00019490","FILE":"3267514","OBJECT_NAME":"STARLINK-1868","CLASSIFICATION_TYPE":"U"},{"OBJECT_NAME":"STARLINK-1869","FILE":"3267514","CLASSIFICATION_TYPE":"U","RA_OF_ASC_NODE":"299.3976","ECCENTRICITY":"0.00019130","LAUNCH_DATE":"2020-11-25","MEAN_MOTION_DOT":"0.00001401","REV_AT_EPOCH":"6245","EPOCH":"2022-01-08T17:51:24.232608","APOAPSIS":"548.549","EPHEMERIS_TYPE":"0","ELEMENT_SET_NO":"999","MEAN_ANOMALY":"293.0613","REF_FRAME":"TEME","PERIOD":"95.592","RCS_SIZE":"LARGE","ARG_OF_PERICENTER":"67.0577","OBJECT_ID":"2020-088AK","MEAN_MOTION":"15.06396540","SEMIMAJOR_AXIS":"6925.359","GP_ID":"193491117","SITE":"AFETR","TIME_SYSTEM":"UTC","BSTAR":"0.00011295000000","TLE_LINE1":"1 47155U 20088AK  22008.74403047  .00001401  00000-0  11295-3 0  9998","COUNTRY_CODE":"US","INCLINATION":"53.0543","MEAN_MOTION_DDOT":"0.0000000000000","OBJECT_TYPE":"PAYLOAD","MEAN_ELEMENT_THEORY":"SGP4","DECAY_DATE":null,"CENTER_NAME":"EARTH","TLE_LINE2":"2 47155  53.0543 299.3976 0001913  67.0577 293.0613 15.06396540 62455","NORAD_CAT_ID":"47155","PERIAPSIS":"545.899"},{"GP_ID":"193489865","SITE":"AFETR","SEMIMAJOR_AXIS":"6741.957","MEAN_MOTION":"15.68280739","COUNTRY_CODE":"US","TIME_SYSTEM":"UTC","BSTAR":"0.00359300000000","TLE_LINE1":"1 47156U 20088AL  22008.82755755  .00432065  00000-0  35930-2 0  9999","CENTER_NAME":"EARTH","DECAY_DATE":null,"MEAN_ELEMENT_THEORY":"SGP4","OBJECT_TYPE":"PAYLOAD","MEAN_MOTION_DDOT":"0.0000000000000","INCLINATION":"53.0544","PERIAPSIS":"362.965","TLE_LINE2":"2 47156  53.0544 195.4589 0001271 114.7721 245.3427 15.68280739 63938","NORAD_CAT_ID":"47156","RA_OF_ASC_NODE":"195.4589","ECCENTRICITY":"0.00012710","FILE":"3267514","OBJECT_NAME":"STARLINK-1870","CLASSIFICATION_TYPE":"U","LAUNCH_DATE":"2020-11-25","MEAN_MOTION_DOT":"0.00432065","REV_AT_EPOCH":"6393","MEAN_ANOMALY":"245.3427","APOAPSIS":"364.679","EPHEMERIS_TYPE":"0","ELEMENT_SET_NO":"999","EPOCH":"2022-01-08T19:51:40.972320","OBJECT_ID":"2020-088AL","ARG_OF_PERICENTER":"114.7721","REF_FRAME":"TEME","PERIOD":"91.820","RCS_SIZE":"LARGE"},{"OBJECT_NAME":"STARLINK-1871","FILE":"3267514","CLASSIFICATION_TYPE":"U","RA_OF_ASC_NODE":"288.6411","ECCENTRICITY":"0.00017840","LAUNCH_DATE":"2020-11-25","MEAN_MOTION_DOT":"0.00000416","REV_AT_EPOCH":"6262","APOAPSIS":"548.438","EPHEMERIS_TYPE":"0","ELEMENT_SET_NO":"999","EPOCH":"2022-01-08T21:56:52.517472","MEAN_ANOMALY":"303.8931","REF_FRAME":"TEME","PERIOD":"95.592","RCS_SIZE":"LARGE","OBJECT_ID":"2020-088AM","ARG_OF_PERICENTER":"56.2227","MEAN_MOTION":"15.06403483","SITE":"AFETR","GP_ID":"193490115","SEMIMAJOR_AXIS":"6925.338","TIME_SYSTEM":"UTC","TLE_LINE1":"1 47157U 20088AM  22008.91449673  .00000416  00000-0  46840-4 0  9994","BSTAR":"0.00004684000000","COUNTRY_CODE":"US","MEAN_ELEMENT_THEORY":"SGP4","OBJECT_TYPE":"PAYLOAD","INCLINATION":"53.0539","MEAN_MOTION_DDOT":"0.0000000000000","CENTER_NAME":"EARTH","DECAY_DATE":null,"TLE_LINE2":"2 47157  53.0539 288.6411 0001784  56.2227 303.8931 15.06403483 62622","NORAD_CAT_ID":"47157","PERIAPSIS":"545.967"},{"MEAN_ANOMALY":"307.4815","EPOCH":"2022-01-08T11:21:17.254368","APOAPSIS":"548.620","EPHEMERIS_TYPE":"0","ELEMENT_SET_NO":"999","ARG_OF_PERICENTER":"52.6356","OBJECT_ID":"2020-088AN","REF_FRAME":"TEME","RCS_SIZE":"LARGE","PERIOD":"95.593","RA_OF_ASC_NODE":"280.6134","ECCENTRICITY":"0.00020030","FILE":"3267276","OBJECT_NAME":"STARLINK-1873","CLASSIFICATION_TYPE":"U","LAUNCH_DATE":"2020-11-25","MEAN_MOTION_DOT":"0.00001368","REV_AT_EPOCH":"6269","DECAY_DATE":null,"CENTER_NAME":"EARTH","INCLINATION":"53.0553","MEAN_MOTION_DDOT":"0.0000000000000","OBJECT_TYPE":"PAYLOAD","MEAN_ELEMENT_THEORY":"SGP4","PERIAPSIS":"545.846","TLE_LINE2":"2 47158  53.0553 280.6134 0002003  52.6356 307.4815 15.06393646 62698","NORAD_CAT_ID":"47158","SEMIMAJOR_AXIS":"6925.368","SITE":"AFETR","GP_ID":"193461036","MEAN_MOTION":"15.06393646","COUNTRY_CODE":"US","TIME_SYSTEM":"UTC","BSTAR":"0.00011072000000","TLE_LINE1":"1 47158U 20088AN  22008.47311637  .00001368  00000-0  11072-3 0  9999"}];
